[{"OBJECT_NAME":"STARLINK-2454","OBJECT_ID":"2021-027AA","EPOCH":"2024-01-29T00:00:34.676640","MEAN_MOTION":15.06392153,"ECCENTRICITY":0.0001428,"INCLINATION":53.0558,"RA_OF_ASC_NODE":31.3808,"ARG_OF_PERICENTER":80.1947,"MEAN_ANOMALY":279.9204,"EPHEMERIS_TYPE":0,"CLASSIFICATION_TYPE":"U","NORAD_CAT_ID":48116,"ELEMENT_SET_NO":999,"REV_AT_EPOCH":15585,"BSTAR":0.00019133,"MEAN_MOTION_DOT":2.569e-5,"MEAN_MOTION_DDOT":0},{"OBJECT_NAME":"STARLINK-2455","OBJECT_ID":"2021-027AB","EPOCH":"2024-01-29T04:06:01.121184","MEAN_MOTION":15.0639205,"ECCENTRICITY":0.0001836,"INCLINATION":53.0564,"RA_OF_ASC_NODE":10.597,"ARG_OF_PERICENTER":113.0151,"MEAN_ANOMALY":247.1032,"EPHEMERIS_TYPE":0,"CLASSIFICATION_TYPE":"U","NORAD_CAT_ID":48117,"ELEMENT_SET_NO":999,"REV_AT_EPOCH":15616,"BSTAR":0.00013839,"MEAN_MOTION_DOT":1.78e-5,"MEAN_MOTION_DDOT":0},{"OBJECT_NAME":"STARLINK-2458","OBJECT_ID":"2021-027AC","EPOCH":"2024-01-29T02:47:45.249216","MEAN_MOTION":15.06401036,"ECCENTRICITY":0.0002593,"INCLINATION":53.0566,"RA_OF_ASC_NODE":10.8516,"ARG_OF_PERICENTER":133.273,"MEAN_ANOMALY":226.8476,"EPHEMERIS_TYPE":0,"CLASSIFICATION_TYPE":"U","NORAD_CAT_ID":48118,"ELEMENT_SET_NO":999,"REV_AT_EPOCH":15615,"BSTAR":8.5687e-5,"MEAN_MOTION_DOT":9.95e-6,"MEAN_MOTION_DDOT":0},{"OBJECT_NAME":"STARLINK-2459","OBJECT_ID":"2021-027AD","EPOCH":"2024-01-29T02:41:05.279424","MEAN_MOTION":15.06398341,"ECCENTRICITY":0.0001675,"INCLINATION":53.0559,"RA_OF_ASC_NODE":10.8667,"ARG_OF_PERICENTER":104.0018,"MEAN_ANOMALY":256.1158,"EPHEMERIS_TYPE":0,"CLASSIFICATION_TYPE":"U","NORAD_CAT_ID":48119,"ELEMENT_SET_NO":999,"REV_AT_EPOCH":15615,"BSTAR":3.1675e-5,"MEAN_MOTION_DOT":1.9e-6,"MEAN_MOTION_DDOT":0},{"OBJECT_NAME":"STARLINK-2460","OBJECT_ID":"2021-027AE","EPOCH":"2024-01-29T09:12:34.522560","MEAN_MOTION":15.06396933,"ECCENTRICITY":0.0001633,"INCLINATION":53.0554,"RA_OF_ASC_NODE":29.6548,"ARG_OF_PERICENTER":102.1072,"MEAN_ANOMALY":258.01,"EPHEMERIS_TYPE":0,"CLASSIFICATION_TYPE":"U","NORAD_CAT_ID":48120,"ELEMENT_SET_NO":999,"REV_AT_EPOCH":15591,"BSTAR":0.00016369,"MEAN_MOTION_DOT":2.157e-5,"MEAN_MOTION_DDOT":0},{"OBJECT_NAME":"STARLINK-2462","OBJECT_ID":"2021-027AF","EPOCH":"2024-01-29T03:44:48.539040","MEAN_MOTION":15.06399925,"ECCENTRICITY":0.0002288,"INCLINATION":53.0551,"RA_OF_ASC_NODE":20.6684,"ARG_OF_PERICENTER":131.9386,"MEAN_ANOMALY":228.1798,"EPHEMERIS_TYPE":0,"CLASSIFICATION_TYPE":"U","NORAD_CAT_ID":48121,"ELEMENT_SET_NO":999,"REV_AT_EPOCH":15602,"BSTAR":6.4252e-5,"MEAN_MOTION_DOT":6.75e-6,"MEAN_MOTION_DDOT":0},{"OBJECT_NAME":"STARLINK-2463","OBJECT_ID":"2021-027AG","EPOCH":"2024-01-29T03:42:49.701888","MEAN_MOTION":15.06396142,"ECCENTRICITY":0.000131,"INCLINATION":53.0559,"RA_OF_ASC_NODE":15.6508,"ARG_OF_PERICENTER":100.0715,"MEAN_ANOMALY":260.0422,"EPHEMERIS_TYPE":0,"CLASSIFICATION_TYPE":"U","NORAD_CAT_ID":48122,"ELEMENT_SET_NO":999,"REV_AT_EPOCH":15609,"BSTAR":0.00012401,"MEAN_MOTION_DOT":1.566e-5,"MEAN_MOTION_DDOT":0},{"OBJECT_NAME":"STARLINK-2464","OBJECT_ID":"2021-027AH","EPOCH":"2024-01-29T03:56:45.359232","MEAN_MOTION":15.06399256,"ECCENTRICITY":0.0001839,"INCLINATION":53.0558,"RA_OF_ASC_NODE":10.6312,"ARG_OF_PERICENTER":125.6191,"MEAN_ANOMALY":234.497,"EPHEMERIS_TYPE":0,"CLASSIFICATION_TYPE":"U","NORAD_CAT_ID":48123,"ELEMENT_SET_NO":999,"REV_AT_EPOCH":15615,"BSTAR":0.00011087,"MEAN_MOTION_DOT":1.37e-5,"MEAN_MOTION_DDOT":0},{"OBJECT_NAME":"STARLINK-2465","OBJECT_ID":"2021-027AJ","EPOCH":"2024-01-29T08:42:02.484000","MEAN_MOTION":15.06399088,"ECCENTRICITY":0.0001189,"INCLINATION":53.0554,"RA_OF_ASC_NODE":19.7507,"ARG_OF_PERICENTER":84.7369,"MEAN_ANOMALY":275.3756,"EPHEMERIS_TYPE":0,"CLASSIFICATION_TYPE":"U","NORAD_CAT_ID":48124,"ELEMENT_SET_NO":999,"REV_AT_EPOCH":15605,"BSTAR":4.4962e-6,"MEAN_MOTION_DOT":-2.14e-6,"MEAN_MOTION_DDOT":0},{"OBJECT_NAME":"STARLINK-2466","OBJECT_ID":"2021-027AK","EPOCH":"2024-01-29T04:15:22.150080","MEAN_MOTION":15.06406061,"ECCENTRICITY":0.000194,"INCLINATION":53.0548,"RA_OF_ASC_NODE":30.8141,"ARG_OF_PERICENTER":129.0621,"MEAN_ANOMALY":231.054,"EPHEMERIS_TYPE":0,"CLASSIFICATION_TYPE":"U","NORAD_CAT_ID":48125,"ELEMENT_SET_NO":999,"REV_AT_EPOCH":15588,"BSTAR":8.5688e-5,"MEAN_MOTION_DOT":9.95e-6,"MEAN_MOTION_DDOT":0},{"OBJECT_NAME":"STARLINK-2467","OBJECT_ID":"2021-027AL","EPOCH":"2024-01-29T03:08:59.838432","MEAN_MOTION":15.06394041,"ECCENTRICITY":0.000158,"INCLINATION":53.0561,"RA_OF_ASC_NODE":10.7796,"ARG_OF_PERICENTER":109.0422,"MEAN_ANOMALY":251.0739,"EPHEMERIS_TYPE":0,"CLASSIFICATION_TYPE":"U","NORAD_CAT_ID":48126,"ELEMENT_SET_NO":999,"REV_AT_EPOCH":15615,"BSTAR":0.00011498,"MEAN_MOTION_DOT":1.431e-5,"MEAN_MOTION_DDOT":0},{"OBJECT_NAME":"STARLINK-2468","OBJECT_ID":"2021-027AM","EPOCH":"2024-01-29T07:42:20.813472","MEAN_MOTION":15.06394515,"ECCENTRICITY":0.0001525,"INCLINATION":53.0556,"RA_OF_ASC_NODE":29.9399,"ARG_OF_PERICENTER":87.3349,"MEAN_ANOMALY":272.7815,"EPHEMERIS_TYPE":0,"CLASSIFICATION_TYPE":"U","NORAD_CAT_ID":48127,"ELEMENT_SET_NO":999,"REV_AT_EPOCH":15590,"BSTAR":0.00013938,"MEAN_MOTION_DOT":1.795e-5,"MEAN_MOTION_DDOT":0},{"OBJECT_NAME":"STARLINK-2469","OBJECT_ID":"2021-027AN","EPOCH":"2024-01-29T00:52:19.598016","MEAN_MOTION":15.0640304,"ECCENTRICITY":0.0001235,"INCLINATION":53.0555,"RA_OF_ASC_NODE":321.3025,"ARG_OF_PERICENTER":85.8432,"MEAN_ANOMALY":274.2698,"EPHEMERIS_TYPE":0,"CLASSIFICATION_TYPE":"U","NORAD_CAT_ID":48128,"ELEMENT_SET_NO":999,"REV_AT_EPOCH":15684,"BSTAR":0.00025989,"MEAN_MOTION_DOT":3.592e-5,"MEAN_MOTION_DDOT":0},{"OBJECT_NAME":"STARLINK-2471","OBJECT_ID":"2021-027AP","EPOCH":"2024-01-29T09:07:16.221504","MEAN_MOTION":15.06392037,"ECCENTRICITY":0.0001792,"INCLINATION":53.0552,"RA_OF_ASC_NODE":29.6721,"ARG_OF_PERICENTER":95.5759,"MEAN_ANOMALY":264.5434,"EPHEMERIS_TYPE":0,"CLASSIFICATION_TYPE":"U","NORAD_CAT_ID":48129,"ELEMENT_SET_NO":999,"REV_AT_EPOCH":15591,"BSTAR":1.4497e-5,"MEAN_MOTION_DOT":-6.6e-7,"MEAN_MOTION_DDOT":0},{"OBJECT_NAME":"STARLINK-2472","OBJECT_ID":"2021-027AQ","EPOCH":"2024-01-29T04:05:21.367680","MEAN_MOTION":15.0639305,"ECCENTRICITY":0.0001713,"INCLINATION":53.0546,"RA_OF_ASC_NODE":35.6122,"ARG_OF_PERICENTER":98.1143,"MEAN_ANOMALY":262.004,"EPHEMERIS_TYPE":0,"CLASSIFICATION_TYPE":"U","NORAD_CAT_ID":48130,"ELEMENT_SET_NO":999,"REV_AT_EPOCH":15581,"BSTAR":9.0281e-5,"MEAN_MOTION_DOT":1.063e-5,"MEAN_MOTION_DDOT":0},{"OBJECT_NAME":"STARLINK-2473","OBJECT_ID":"2021-027AR","EPOCH":"2024-01-29T02:58:21.260352","MEAN_MOTION":15.06401306,"ECCENTRICITY":0.0001612,"INCLINATION":53.0541,"RA_OF_ASC_NODE":10.8171,"ARG_OF_PERICENTER":128.7171,"MEAN_ANOMALY":231.3963,"EPHEMERIS_TYPE":0,"CLASSIFICATION_TYPE":"U","NORAD_CAT_ID":48131,"ELEMENT_SET_NO":999,"REV_AT_EPOCH":15615,"BSTAR":-0.0001267,"MEAN_MOTION_DOT":-2.168e-5,"MEAN_MOTION_DDOT":0},{"OBJECT_NAME":"STARLINK-2474","OBJECT_ID":"2021-027AS","EPOCH":"2024-01-29T04:04:43.474368","MEAN_MOTION":15.06396378,"ECCENTRICITY":0.0001749,"INCLINATION":53.0561,"RA_OF_ASC_NODE":30.6159,"ARG_OF_PERICENTER":110.6724,"MEAN_ANOMALY":249.4453,"EPHEMERIS_TYPE":0,"CLASSIFICATION_TYPE":"U","NORAD_CAT_ID":48132,"ELEMENT_SET_NO":999,"REV_AT_EPOCH":15588,"BSTAR":7.3355e-5,"MEAN_MOTION_DOT":8.11e-6,"MEAN_MOTION_DDOT":0}]
