48116,STARLINK-2454,2021,95.59,260.0,+,53.05,Active,1,LEO,USA,USA,Commercial,Communications,Falcon,1 48116U 21027AA  24029.00040135  .00002569  00000+0  19133-3 0  9993,2 48116  53.0558  31.3808 0001428  80.1947 279.9204 15.06392153155857,15.06392153,0.0001428,LEO
48117,STARLINK-2455,2021,95.59,260.0,+,53.06,Active,1,LEO,USA,USA,Commercial,Communications,Falcon,1 48117U 21027AB  24029.17084631  .00001780  00000+0  13839-3 0  9992,2 48117  53.0564  10.5970 0001836 113.0151 247.1032 15.06392050156167,15.0639205,0.0001836,LEO
48118,STARLINK-2458,2021,95.59,260.0,+,53.06,Active,1,LEO,USA,USA,Commercial,Communications,Falcon,1 48118U 21027AC  24029.11649594  .00000995  00000+0  85687-4 0  9990,2 48118  53.0566  10.8516 0002593 133.2730 226.8476 15.06401036156157,15.06401036,0.0002593,LEO
48119,STARLINK-2459,2021,95.59,260.0,+,53.06,Active,1,LEO,USA,USA,Commercial,Communications,Falcon,1 48119U 21027AD  24029.11186666  .00000190  00000+0  31675-4 0  9992,2 48119  53.0559  10.8667 0001675 104.0018 256.1158 15.06398341156159,15.06398341,0.0001675,LEO
48120,STARLINK-2460,2021,95.59,260.0,+,53.05,Active,1,LEO,USA,USA,Commercial,Communications,Falcon,1 48120U 21027AE  24029.38373290  .00002157  00000+0  16369-3 0  9991,2 48120  53.0554  29.6548 0001633 102.1072 258.0100 15.06396933155911,15.06396933,0.0001633,LEO
48121,STARLINK-2462,2021,95.59,260.0,+,53.06,Active,1,LEO,USA,USA,Commercial,Communications,Falcon,1 48121U 21027AF  24029.15611735  .00000675  00000+0  64252-4 0  9994,2 48121  53.0551  20.6684 0002288 131.9386 228.1798 15.06399925156024,15.06399925,0.0002288,LEO
48122,STARLINK-2463,2021,95.59,260.0,+,53.06,Active,1,LEO,USA,USA,Commercial,Communications,Falcon,1 48122U 21027AG  24029.15474192  .00001566  00000+0  12401-3 0  9997,2 48122  53.0559  15.6508 0001310 100.0715 260.0422 15.06396142156094,15.06396142,0.000131,LEO
48123,STARLINK-2464,2021,95.59,260.0,+,53.06,Active,1,LEO,USA,USA,Commercial,Communications,Falcon,1 48123U 21027AH  24029.16441388  .00001370  00000+0  11087-3 0  9992,2 48123  53.0558  10.6312 0001839 125.6191 234.4970 15.06399256156158,15.06399256,0.0001839,LEO
48124,STARLINK-2465,2021,95.59,260.0,+,53.06,Active,1,LEO,USA,USA,Commercial,Communications,Falcon,1 48124U 21027AJ  24029.36252875 -.00000214  00000+0  44962-5 0  9993,2 48124  53.0554  19.7507 0001189  84.7369 275.3756 15.06399088156059,15.06399088,0.0001189,LEO
48125,STARLINK-2466,2021,95.59,260.0,+,53.05,Active,1,LEO,USA,USA,Commercial,Communications,Falcon,1 48125U 21027AK  24029.17733970  .00000995  00000+0  85688-4 0  9997,2 48125  53.0548  30.8141 0001940 129.0621 231.0540 15.06406061155880,15.06406061,0.000194,LEO
48126,STARLINK-2467,2021,95.59,260.0,+,53.06,Active,1,LEO,USA,USA,Commercial,Communications,Falcon,1 48126U 21027AL  24029.13124813  .00001431  00000+0  11498-3 0  9997,2 48126  53.0561  10.7796 0001580 109.0422 251.0739 15.06394041156153,15.06394041,0.000158,LEO
48127,STARLINK-2468,2021,95.59,260.0,+,53.06,Active,1,LEO,USA,USA,Commercial,Communications,Falcon,1 48127U 21027AM  24029.32107423  .00001795  00000+0  13938-3 0  9991,2 48127  53.0556  29.9399 0001525  87.3349 272.7815 15.06394515155907,15.06394515,0.0001525,LEO
48128,STARLINK-2469,2021,95.59,260.0,+,53.06,Active,1,LEO,USA,USA,Commercial,Communications,Falcon,1 48128U 21027AN  24029.03633794  .00003592  00000+0  25989-3 0  9991,2 48128  53.0555 321.3025 0001235  85.8432 274.2698 15.06403040156840,15.0640304,0.0001235,LEO
48129,STARLINK-2471,2021,95.59,260.0,+,53.06,Active,1,LEO,USA,USA,Commercial,Communications,Falcon,1 48129U 21027AP  24029.38004886 -.00000066  00000+0  14497-4 0  9991,2 48129  53.0552  29.6721 0001792  95.5759 264.5434 15.06392037155917,15.06392037,0.0001792,LEO
48130,STARLINK-2472,2021,95.59,260.0,+,53.05,Active,1,LEO,USA,USA,Commercial,Communications,Falcon,1 48130U 21027AQ  24029.17038620  .00001063  00000+0  90281-4 0  9995,2 48130  53.0546  35.6122 0001713  98.1143 262.0040 15.06393050155814,15.0639305,0.0001713,LEO
48131,STARLINK-2473,2021,95.59,260.0,+,53.06,Active,1,LEO,USA,USA,Commercial,Communications,Falcon,1 48131U 21027AR  24029.12385718 -.00002168  00000+0 -12670-3 0  9998,2 48131  53.0541  10.8171 0001612 128.7171 231.3963 15.06401306156153,15.06401306,0.0001612,LEO
48132,STARLINK-2474,2021,95.59,260.0,+,53.06,Active,1,LEO,USA,USA,Commercial,Communications,Falcon,1 48132U 21027AS  24029.16994762  .00000811  00000+0  73355-4 0  9997,2 48132  53.0561  30.6159 0001749 110.6724 249.4453 15.06396378155882,15.06396378,0.0001749,LEO
